NORAD_CAT_ID,OBJECT_NAME,OBJECT_TYPE,EPOCH,MEAN_MOTION,ECCENTRICITY,INCLINATION,RA_OF_ASC_NODE,ARG_OF_PERICENTER,MEAN_ANOMALY,BSTAR,MEAN_MOTION_DOT,MEAN_MOTION_DDOT,TLE_LINE0,TLE_LINE1,TLE_LINE2,SEMIMAJOR_AXIS,PERIOD,APOGEE,PERIGEE,DECAYED
52677.0,STARLINK-4028,PAYLOAD,2024-07-19 13:03:47,15.08838528,0.000101,53.2188,309.2997,91.161,268.9498,8.8451e-05,1.12e-05,0.0,0 STARLINK-4028,1 52677U 22053X   24201.54430013  .00001120  00000-0  88451-4 0  9992,2 52677  53.2188 309.2997 0001010  91.1610 268.9498 15.08838528120440,6917.885,95.438,540.449,539.051,0.0
52677.0,STARLINK-4028,PAYLOAD,2024-07-19 14:39:10,15.08838832,0.000104,53.2186,309.0018,107.1256,252.985,9.0862e-05,1.159e-05,0.0,0 STARLINK-4028,1 52677U 22053X   24201.61053927  .00001159  00000-0  90862-4 0  9996,2 52677  53.2186 309.0018 0001040 107.1256 252.9850 15.08838832120866,6917.884,95.438,540.468,539.029,0.0
52677.0,STARLINK-4028,PAYLOAD,2024-07-20 14:29:57,15.08839979,0.0001065,53.2184,304.5432,78.872,281.2392,8.1933e-05,1.016e-05,0.0,0 STARLINK-4028,1 52677U 22053X   24202.60414131  .00001016  00000-0  81933-4 0  9995,2 52677  53.2184 304.5432 0001065  78.8720 281.2392 15.08839979121018,6917.88,95.438,540.482,539.009,0.0
52677.0,STARLINK-4028,PAYLOAD,2024-07-21 12:45:22,15.08837714,0.0001039,53.2184,300.3805,70.3979,289.7125,4.0924e-06,-2.23e-06,0.0,0 STARLINK-4028,1 52677U 22053X   24203.53150651 -.00000223  00000-0  40924-5 0  9998,2 52677  53.2184 300.3805 0001039  70.3979 289.7125 15.08837714120741,6917.887,95.438,540.471,539.034,0.0
52677.0,STARLINK-4028,PAYLOAD,2024-07-21 14:20:45,15.08838397,0.0001039,53.2184,300.083,72.1325,287.978,6.3929e-06,-1.86e-06,0.0,0 STARLINK-4028,1 52677U 22053X   24203.59774601 -.00000186  00000-0  63929-5 0  9999,2 52677  53.2184 300.0830 0001039  72.1325 287.9780 15.08838397121163,6917.885,95.438,540.469,539.032,0.0
52677.0,STARLINK-4028,PAYLOAD,2024-07-22 15:46:55,15.08842237,0.000118,53.2181,295.3252,76.5365,283.5758,3.9071e-05,3.34e-06,0.0,0 STARLINK-4028,1 52677U 22053X   24204.65758184  .00000334  00000-0  39071-4 0  9999,2 52677  53.2181 295.3252 0001180  76.5365 283.5758 15.08842237120910,6917.874,95.437,540.555,538.922,0.0
52677.0,STARLINK-4028,PAYLOAD,2024-07-23 12:26:55,15.0884097,0.0001043,53.2179,291.4582,86.9288,273.1824,4.9659e-05,5.03e-06,0.0,0 STARLINK-4028,1 52677U 22053X   24205.51870107  .00000503  00000-0  49659-4 0  9996,2 52677  53.2179 291.4582 0001043  86.9288 273.1824 15.08840970121458,6917.877,95.437,540.464,539.021,0.0
52677.0,STARLINK-4028,PAYLOAD,2024-07-23 15:37:41,15.08841593,0.0001067,53.2178,290.8636,86.1401,273.9713,5.4579e-05,5.81e-06,0.0,0 STARLINK-4028,1 52677U 22053X   24205.65118041  .00000581  00000-0  54579-4 0  9996,2 52677  53.2178 290.8636 0001067  86.1401 273.9713 15.08841593121474,6917.876,95.437,540.479,539.002,0.0
52677.0,STARLINK-4028,PAYLOAD,2024-07-24 09:06:57,15.0883478,0.0001198,53.2183,287.5911,90.4764,269.6365,-4.3527e-05,-9.8e-06,0.0,0 STARLINK-4028,1 52677U 22053X   24206.37982909 -.00000980  00000-0 -43527-4 0  9994,2 52677  53.2183 287.5911 0001198  90.4764 269.6365 15.08834780121176,6917.896,95.438,540.59,538.933,0.0
52677.0,STARLINK-4028,PAYLOAD,2024-07-25 05:46:58,15.08832909,0.0001221,53.2177,283.7242,92.7802,267.333,3.698e-06,-2.29e-06,0.0,0 STARLINK-4028,1 52677U 22053X   24207.24095008 -.00000229  00000-0  36980-5 0  9997,2 52677  53.2177 283.7242 0001221  92.7802 267.3330 15.08832909121717,6917.902,95.438,540.612,538.922,0.0
52677.0,STARLINK-4028,PAYLOAD,2024-07-25 10:33:07,15.08839666,0.0001282,53.2177,282.8345,95.7534,264.3605,3.6421e-05,2.92e-06,0.0,0 STARLINK-4028,1 52677U 22053X   24207.43966573  .00000292  00000-0  36421-4 0  9990,2 52677  53.2177 282.8345 0001282  95.7534 264.3605 15.08839666121330,6917.881,95.438,540.633,538.86,0.0
52677.0,STARLINK-4028,PAYLOAD,2024-07-26 05:37:45,15.08826163,0.0001031,53.2169,279.2653,85.2148,274.8961,1.7956e-05,-2e-08,0.0,0 STARLINK-4028,1 52677U 22053X   24208.23455481 -.00000002  00000-0  17956-4 0  9992,2 52677  53.2169 279.2653 0001031  85.2148 274.8961 15.08826163121452,6917.923,95.438,540.501,539.074,0.0
52677.0,STARLINK-4028,PAYLOAD,2024-07-26 10:23:54,15.08832462,0.0001426,53.2191,278.378,99.528,260.5873,6.8974e-05,8.1e-06,0.0,0 STARLINK-4028,1 52677U 22053X   24208.43327087  .00000810  00000-0  68974-4 0  9996,2 52677  53.2191 278.3780 0001426  99.5280 260.5873 15.08832462121487,6917.903,95.438,540.755,538.782,0.0
52677.0,STARLINK-4028,PAYLOAD,2024-07-26 13:34:40,15.08832667,0.0001379,53.2183,277.7822,96.4742,263.6407,6.6191e-05,7.65e-06,0.0,0 STARLINK-4028,1 52677U 22053X   24208.56575128  .00000765  00000-0  66191-4 0  9999,2 52677  53.2183 277.7822 0001379  96.4742 263.6407 15.08832667121916,6917.903,95.438,540.722,538.814,0.0
52677.0,STARLINK-4028,PAYLOAD,2024-07-26 21:31:36,15.08841477,0.000124,53.2177,276.2946,90.2088,269.9046,4.4354e-05,4.18e-06,0.0,0 STARLINK-4028,1 52677U 22053X   24208.89694746  .00000418  00000-0  44354-4 0  9995,2 52677  53.2177 276.2946 0001240  90.2088 269.9046 15.08841477121964,6917.876,95.437,540.599,538.883,0.0
52677.0,STARLINK-4028,PAYLOAD,2024-07-27 10:14:41,15.08838666,0.0001407,53.2184,273.9168,94.6813,265.434,1.3251e-05,-7.7e-07,0.0,0 STARLINK-4028,1 52677U 22053X   24209.42687081 -.00000077  00000-0  13251-4 0  9993,2 52677  53.2184 273.9168 0001407  94.6813 265.4340 15.08838666122045,6917.884,95.438,540.723,538.776,0.0
52677.0,STARLINK-4028,PAYLOAD,2024-07-28 11:40:51,15.08837804,0.0001269,53.2172,269.1573,84.0705,276.0432,-9.2471e-08,-2.89e-06,0.0,0 STARLINK-4028,1 52677U 22053X   24210.48671284 -.00000289  00000-0 -92471-7 0  9999,2 52677  53.2172 269.1573 0001269  84.0705 276.0432 15.08837804121792,6917.887,95.438,540.63,538.874,0.0
52677.0,STARLINK-4028,PAYLOAD,2024-07-28 13:16:15,15.08837601,0.0001272,53.2172,268.86,84.0663,276.0474,-1.6302e-06,-3.14e-06,0.0,0 STARLINK-4028,1 52677U 22053X   24210.55295308 -.00000314  00000-0 -16302-5 0  9992,2 52677  53.2172 268.8600 0001272  84.0663 276.0474 15.08837601122215,6917.888,95.438,540.633,538.873,0.0
52677.0,STARLINK-4028,PAYLOAD,2024-07-29 09:56:15,15.08839235,0.0001197,53.2163,264.9949,87.8467,272.2663,4.2135e-05,3.83e-06,0.0,0 STARLINK-4028,1 52677U 22053X   24211.41407058  .00000383  00000-0  42135-4 0  9991,2 52677  53.2163 264.9949 0001197  87.8467 272.2663 15.08839235122344,6917.883,95.438,540.576,538.92,0.0
52677.0,STARLINK-4028,PAYLOAD,2024-07-29 21:03:57,15.08841434,0.0001186,53.2165,262.9127,88.0003,272.1125,5.5813e-05,6.01e-06,0.0,0 STARLINK-4028,1 52677U 22053X   24211.87774839  .00000601  00000-0  55813-4 0  9995,2 52677  53.2165 262.9127 0001186  88.0003 272.1125 15.08841434122008,6917.876,95.437,540.561,538.921,0.0
52677.0,STARLINK-4028,PAYLOAD,2024-07-30 09:47:03,15.08835192,0.0001281,53.2172,260.5344,90.5284,269.5855,1.105e-05,-1.12e-06,0.0,0 STARLINK-4028,1 52677U 22053X   24212.40767471 -.00000112  00000-0  11050-4 0  9992,2 52677  53.2172 260.5344 0001281  90.5284 269.5855 15.08835192122088,6917.895,95.438,540.646,538.874,0.0
52677.0,STARLINK-4028,PAYLOAD,2024-07-31 12:48:33,15.08869795,0.0001407,53.2173,255.4771,87.4025,272.7128,0.00024876,3.676e-05,0.0,0 STARLINK-4028,1 52677U 22053X   24213.53372358  .00003676  00000-0  24876-3 0  9999,2 52677  53.2173 255.4771 0001407  87.4025 272.7128 15.08869795122258,6917.789,95.436,540.628,538.681,0.0
52677.0,STARLINK-4028,PAYLOAD,2024-08-01 12:39:21,15.08843384,0.0001377,53.2165,251.0176,86.2194,273.8956,1.4071e-05,-6.4e-07,0.0,0 STARLINK-4028,1 52677U 22053X   24214.52733107 -.00000064  00000-0  14071-4 0  9998,2 52677  53.2165 251.0176 0001377  86.2194 273.8956 15.08843384122404,6917.87,95.437,540.688,538.782,0.0
52677.0,STARLINK-4028,PAYLOAD,2024-08-02 09:19:23,15.0882953,0.0001218,53.2165,247.1512,83.9456,276.1675,-0.00017507,-3.072e-05,0.0,0 STARLINK-4028,1 52677U 22053X   24215.38846884 -.00003072  00000-0 -17507-3 0  9999,2 52677  53.2165 247.1512 0001218  83.9456 276.1675 15.08829530122538,6917.912,95.438,540.62,538.935,0.0
52677.0,STARLINK-4028,PAYLOAD,2024-08-03 09:10:10,15.08828366,0.0001482,53.2164,242.6917,113.4356,246.6792,-8.9289e-05,-1.708e-05,0.0,0 STARLINK-4028,1 52677U 22053X   24216.38206754 -.00001708  00000-0 -89289-4 0  9997,2 52677  53.2164 242.6917 0001482 113.4356 246.6792 15.08828366122681,6917.916,95.438,540.806,538.756,0.0
52677.0,STARLINK-4028,PAYLOAD,2024-08-03 18:42:29,15.08844407,0.0001216,53.2163,240.9072,97.1617,262.9513,-0.00023836,-4.08e-05,0.0,0 STARLINK-4028,1 52677U 22053X   24216.77950495 -.00004080  00000-0 -23836-3 0  9999,2 52677  53.2163 240.9072 0001216  97.1617 262.9513 15.08844407122749,6917.867,95.437,540.573,538.891,0.0
52677.0,STARLINK-4028,PAYLOAD,2024-08-04 10:36:21,15.08827718,0.0001188,53.216,237.9336,89.4848,270.628,0.00016456,2.331e-05,0.0,0 STARLINK-4028,1 52677U 22053X   24217.44191174  .00002331  00000-0  16456-3 0  9990,2 52677  53.2160 237.9336 0001188  89.4848 270.6280 15.08827718122847,6917.918,95.438,540.605,538.961,0.0
52677.0,STARLINK-4028,PAYLOAD,2024-08-04 18:33:16,15.08833658,0.000117,53.2158,236.4465,85.8221,274.2905,0.00018895,2.72e-05,0.0,0 STARLINK-4028,1 52677U 22053X   24217.77310978  .00002720  00000-0  18895-3 0  9992,2 52677  53.2158 236.4465 0001170  85.8221 274.2905 15.08833658123303,6917.9,95.438,540.574,538.955,0.0
52677.0,STARLINK-4028,PAYLOAD,2024-08-05 18:24:04,15.08838362,0.0001277,53.2162,231.9866,88.1961,271.9177,0.00011988,1.62e-05,0.0,0 STARLINK-4028,1 52677U 22053X   24218.76671399  .00001620  00000-0  11988-3 0  9993,2 52677  53.2162 231.9866 0001277  88.1961 271.9177 15.08838362123041,6917.885,95.438,540.634,538.867,0.0
52677.0,STARLINK-4028,PAYLOAD,2024-08-06 00:45:37,15.08830407,0.0001386,53.2164,230.7968,91.9116,268.2035,-4.9971e-06,-3.67e-06,0.0,0 STARLINK-4028,1 52677U 22053X   24219.03168401 -.00000367  00000-0 -49971-5 0  9993,2 52677  53.2164 230.7968 0001386  91.9116 268.2035 15.08830407123086,6917.91,95.438,540.734,538.816,0.0
